KDEN 010153Z 36003KT 10SM FEW220 04/M07 A3006 RMK AO2 SLP179 T00441067
