KDEN 232253Z 36018KT 10SM FEW033 BKN065 BKN200 04/M03 A2985 RMK AO2 SLP104 T00441028 $
